{
  "type": "FeatureCollection",
  "features": [
    {
      "type": "Feature",
      "properties": {
        "norad_id": 35771,
        "name": "COSMOS 2251 DEB",
        "group": "cosmos-2251-debris",
        "lat": -46.692105466539275,
        "lon": 131.155907131094,
        "alt_km": 689.1100778553546,
        "timestamp": "2025-12-22T05:49:03.897882+00:00",
        "meta_object_name": "COSMOS 2251 DEB",
        "meta_object_id": "1993-036ARR",
        "meta_epoch": "2025-12-15T14:45:16.238592",
        "meta_mean_motion": 14.13430046,
        "meta_eccentricity": 0.02280549,
        "meta_inclination": 74.1561,
        "meta_ra_of_asc_node": 305.27,
        "meta_arg_of_pericenter": 242.9998,
        "meta_mean_anomaly": 114.7698,
        "meta_ephemeris_type": 0,
        "meta_classification_type": "U",
        "meta_norad_cat_id": 35771,
        "meta_element_set_no": 999,
        "meta_rev_at_epoch": 82901,
        "meta_bstar": 0.0026764238,
        "meta_mean_motion_dot": 6.427e-05,
        "meta_mean_motion_ddot": 0,
        "tle_line1": "1 35771U 93036ARR 25349.61477128  .00006427  00000+0  26764-2 0  9998",
        "tle_line2": "2 35771  74.1561 305.2700 0228054 242.9998 114.7698 14.13430046829012"
      },
      "geometry": {
        "type": "Point",
        "coordinates": [
          131.155907131094,
          -46.692105466539275
        ]
      }
    },
    {
      "type": "Feature",
      "properties": {
        "norad_id": 35773,
        "name": "COSMOS 2251 DEB",
        "group": "cosmos-2251-debris",
        "lat": -33.40777912170868,
        "lon": -48.30967974815042,
        "alt_km": 721.0406887466252,
        "timestamp": "2025-12-22T05:49:03.897892+00:00",
        "meta_object_name": "COSMOS 2251 DEB",
        "meta_object_id": "1993-036ART",
        "meta_epoch": "2025-12-21T15:11:56.535072",
        "meta_mean_motion": 14.62113252,
        "meta_eccentricity": 0.0045228,
        "meta_inclination": 74.0082,
        "meta_ra_of_asc_node": 323.7614,
        "meta_arg_of_pericenter": 121.2103,
        "meta_mean_anomaly": 239.3508,
        "meta_ephemeris_type": 0,
        "meta_classification_type": "U",
        "meta_norad_cat_id": 35773,
        "meta_element_set_no": 999,
        "meta_rev_at_epoch": 86969,
        "meta_bstar": 0.00045568,
        "meta_mean_motion_dot": 2.294e-05,
        "meta_mean_motion_ddot": 0,
        "tle_line1": "1 35773U 93036ART 25355.63329323  .00002294  00000+0  45568-3 0  9994",
        "tle_line2": "2 35773  74.0082 323.7614 0045228 121.2103 239.3508 14.62113252869690"
      },
      "geometry": {
        "type": "Point",
        "coordinates": [
          -48.30967974815042,
          -33.40777912170868
        ]
      }
    },
    {
      "type": "Feature",
      "properties": {
        "norad_id": 35777,
        "name": "COSMOS 2251 DEB",
        "group": "cosmos-2251-debris",
        "lat": -33.960518589909434,
        "lon": -63.75577187746422,
        "alt_km": 1285.9853602399699,
        "timestamp": "2025-12-22T05:49:03.897903+00:00",
        "meta_object_name": "COSMOS 2251 DEB",
        "meta_object_id": "1993-036ARX",
        "meta_epoch": "2025-12-21T03:15:52.333632",
        "meta_mean_motion": 13.41306169,
        "meta_eccentricity": 0.04518911,
        "meta_inclination": 73.7705,
        "meta_ra_of_asc_node": 309.3239,
        "meta_arg_of_pericenter": 202.9304,
        "meta_mean_anomaly": 176.7174,
        "meta_ephemeris_type": 0,
        "meta_classification_type": "U",
        "meta_norad_cat_id": 35777,
        "meta_element_set_no": 999,
        "meta_rev_at_epoch": 79797,
        "meta_bstar": 0.00012977611,
        "meta_mean_motion_dot": 1.09e-06,
        "meta_mean_motion_ddot": 0,
        "tle_line1": "1 35777U 93036ARX 25355.13602238  .00000109  00000+0  12978-3 0  9994",
        "tle_line2": "2 35777  73.7705 309.3239 0451891 202.9304 176.7174 13.41306169797973"
      },
      "geometry": {
        "type": "Point",
        "coordinates": [
          -63.75577187746422,
          -33.960518589909434
        ]
      }
    },
    {
      "type": "Feature",
      "properties": {
        "norad_id": 35784,
        "name": "COSMOS 2251 DEB",
        "group": "cosmos-2251-debris",
        "lat": -64.59887227929744,
        "lon": 34.80969759620144,
        "alt_km": 731.7574324491152,
        "timestamp": "2025-12-22T05:49:03.897913+00:00",
        "meta_object_name": "COSMOS 2251 DEB",
        "meta_object_id": "1993-036ASE",
        "meta_epoch": "2025-12-17T23:28:57.859680",
        "meta_mean_motion": 14.50055355,
        "meta_eccentricity": 0.00415956,
        "meta_inclination": 74.0403,
        "meta_ra_of_asc_node": 79.8718,
        "meta_arg_of_pericenter": 209.9484,
        "meta_mean_anomaly": 149.9297,
        "meta_ephemeris_type": 0,
        "meta_classification_type": "U",
        "meta_norad_cat_id": 35784,
        "meta_element_set_no": 999,
        "meta_rev_at_epoch": 65782,
        "meta_bstar": 0.00024795111,
        "meta_mean_motion_dot": 9.44e-06,
        "meta_mean_motion_ddot": 0,
        "tle_line1": "1 35784U 93036ASE 25351.97844745  .00000944  00000+0  24795-3 0  9998",
        "tle_line2": "2 35784  74.0403  79.8718 0041595 209.9484 149.9297 14.50055355657829"
      },
      "geometry": {
        "type": "Point",
        "coordinates": [
          34.80969759620144,
          -64.59887227929744
        ]
      }
    },
    {
      "type": "Feature",
      "properties": {
        "norad_id": 35786,
        "name": "COSMOS 2251 DEB",
        "group": "cosmos-2251-debris",
        "lat": 40.064804001690284,
        "lon": 39.38028336803702,
        "alt_km": 677.6760922313906,
        "timestamp": "2025-12-22T05:49:03.897923+00:00",
        "meta_object_name": "COSMOS 2251 DEB",
        "meta_object_id": "1993-036ASG",
        "meta_epoch": "2025-12-21T19:48:04.442688",
        "meta_mean_motion": 14.66307498,
        "meta_eccentricity": 0.003332,
        "meta_inclination": 74.0136,
        "meta_ra_of_asc_node": 26.2337,
        "meta_arg_of_pericenter": 153.7976,
        "meta_mean_anomaly": 206.4888,
        "meta_ephemeris_type": 0,
        "meta_classification_type": "U",
        "meta_norad_cat_id": 35786,
        "meta_element_set_no": 999,
        "meta_rev_at_epoch": 73541,
        "meta_bstar": 0.00067287,
        "meta_mean_motion_dot": 3.713e-05,
        "meta_mean_motion_ddot": 0,
        "tle_line1": "1 35786U 93036ASG 25355.82505142  .00003713  00000+0  67287-3 0  9993",
        "tle_line2": "2 35786  74.0136  26.2337 0033320 153.7976 206.4888 14.66307498735418"
      },
      "geometry": {
        "type": "Point",
        "coordinates": [
          39.38028336803702,
          40.064804001690284
        ]
      }
    },
    {
      "type": "Feature",
      "properties": {
        "norad_id": 35789,
        "name": "COSMOS 2251 DEB",
        "group": "cosmos-2251-debris",
        "lat": 37.43420896846623,
        "lon": 74.27295152841145,
        "alt_km": 793.4272674132553,
        "timestamp": "2025-12-22T05:49:03.897933+00:00",
        "meta_object_name": "COSMOS 2251 DEB",
        "meta_object_id": "1993-036ASK",
        "meta_epoch": "2025-12-20T11:22:01.638048",
        "meta_mean_motion": 14.35991601,
        "meta_eccentricity": 0.00476765,
        "meta_inclination": 74.0388,
        "meta_ra_of_asc_node": 270.1736,
        "meta_arg_of_pericenter": 7.6909,
        "meta_mean_anomaly": 352.4963,
        "meta_ephemeris_type": 0,
        "meta_classification_type": "U",
        "meta_norad_cat_id": 35789,
        "meta_element_set_no": 999,
        "meta_rev_at_epoch": 61338,
        "meta_bstar": 9.629757e-05,
        "meta_mean_motion_dot": 2.57e-06,
        "meta_mean_motion_ddot": 0,
        "tle_line1": "1 35789U 93036ASK 25354.47363007  .00000257  00000+0  96298-4 0  9993",
        "tle_line2": "2 35789  74.0388 270.1736 0047676   7.6909 352.4963 14.35991601613383"
      },
      "geometry": {
        "type": "Point",
        "coordinates": [
          74.27295152841145,
          37.43420896846623
        ]
      }
    },
    {
      "type": "Feature",
      "properties": {
        "norad_id": 35793,
        "name": "COSMOS 2251 DEB",
        "group": "cosmos-2251-debris",
        "lat": -34.326670117932736,
        "lon": -127.22408521728607,
        "alt_km": 639.8175066158183,
        "timestamp": "2025-12-22T05:49:03.897944+00:00",
        "meta_object_name": "COSMOS 2251 DEB",
        "meta_object_id": "1993-036ASP",
        "meta_epoch": "2025-12-21T12:55:34.256352",
        "meta_mean_motion": 14.7886459,
        "meta_eccentricity": 0.00021549,
        "meta_inclination": 74.0406,
        "meta_ra_of_asc_node": 42.8902,
        "meta_arg_of_pericenter": 82.845,
        "meta_mean_anomaly": 347.45,
        "meta_ephemeris_type": 0,
        "meta_classification_type": "U",
        "meta_norad_cat_id": 35793,
        "meta_element_set_no": 999,
        "meta_rev_at_epoch": 65927,
        "meta_bstar": 0.001180574,
        "meta_mean_motion_dot": 8.673e-05,
        "meta_mean_motion_ddot": 0,
        "tle_line1": "1 35793U 93036ASP 25355.53859093  .00008673  00000+0  11806-2 0  9991",
        "tle_line2": "2 35793  74.0406  42.8902 0002154  82.8450 347.4500 14.78864590659278"
      },
      "geometry": {
        "type": "Point",
        "coordinates": [
          -127.22408521728607,
          -34.326670117932736
        ]
      }
    }
  ]
}